[{"OBJECT_NAME":"JILIN-1 GAOFEN 2D","OBJECT_ID":"2021-086A","EPOCH":"2026-03-09T21:43:54.183072","MEAN_MOTION":15.09714905,"ECCENTRICITY":0.00351294,"INCLINATION":97.632,"RA_OF_ASC_NODE":191.8747,"ARG_OF_PERICENTER":123.7982,"MEAN_ANOMALY":236.66,"EPHEMERIS_TYPE":0,"CLASSIFICATION_TYPE":"U","NORAD_CAT_ID":49256,"ELEMENT_SET_NO":999,"REV_AT_EPOCH":24573,"BSTAR":0.00040994132,"MEAN_MOTION_DOT":6.64e-5,"MEAN_MOTION_DDOT":0},{"OBJECT_NAME":"FLAMINGO-1","OBJECT_ID":"2026-004AE","EPOCH":"2026-03-09T22:11:27.220704","MEAN_MOTION":15.17446566,"ECCENTRICITY":0.00039812,"INCLINATION":97.4546,"RA_OF_ASC_NODE":69.3601,"ARG_OF_PERICENTER":332.6166,"MEAN_ANOMALY":27.4857,"EPHEMERIS_TYPE":0,"CLASSIFICATION_TYPE":"U","NORAD_CAT_ID":67391,"ELEMENT_SET_NO":999,"REV_AT_EPOCH":869,"BSTAR":0.00014641045,"MEAN_MOTION_DOT":2.863e-5,"MEAN_MOTION_DDOT":0}]
